STARLINK-37139          
1 68317U 26057Z   26087.83335648 -.01163941  45563-3 -18089-2 0  9999
2 68317  97.2782 210.9729 0001130  81.7529 194.4132 16.04191338  2089
