{
  "norad_id": 68317,
  "name": "STARLINK-37139",
  "history": [
    {
      "epoch": "2026-03-28T20:00:01.999872",
      "apogee_km": 263.5770685072739,
      "perigee_km": 262.0750154864354,
      "latitude_deg": -62.623589891516126,
      "longitude_deg": 11.702222079969943,
      "semi_major_axis_km": 6640.963041996854,
      "eccentricity": 0.00011309,
      "inclination_deg": 97.2782,
      "raan_deg": 210.9729,
      "arg_perigee_deg": 81.7529,
      "mean_anomaly_deg": 194.4132,
      "mean_motion_rev_day": 16.04191338
    }
  ]
}